start=new Date('2022-10-19T00:00:00.000Z').valueOf();
sats=[{"RCS_SIZE":"LARGE","APOAPSIS":"548.293","REF_FRAME":"TEME","RA_OF_ASC_NODE":"184.2423","MEAN_MOTION_DDOT":"0.0000000000000","CLASSIFICATION_TYPE":"U","FILE":"3621750","ELEMENT_SET_NO":"999","MEAN_MOTION":"15.06385373","OBJECT_ID":"2020-012AR","ARG_OF_PERICENTER":"102.9827","MEAN_ANOMALY":"257.1328","COUNTRY_CODE":"US","PERIAPSIS":"546.224","TLE_LINE2":"2 45217  53.0529 184.2423 0001494 102.9827 257.1328 15.06385373148525","LAUNCH_DATE":"2020-02-17","DECAY_DATE":null,"ECCENTRICITY":"0.00014940","BSTAR":"-0.00007143000000","REV_AT_EPOCH":"14852","MEAN_ELEMENT_THEORY":"SGP4","TLE_LINE1":"1 45217U 20012AR  22291.68640344 -.00001345  00000-0 -71430-4 0  9999","TIME_SYSTEM":"UTC","GP_ID":"215525626","SITE":"AFETR","SEMIMAJOR_AXIS":"6925.393","EPOCH":"2022-10-18T16:28:25.257216","EPHEMERIS_TYPE":"0","OBJECT_NAME":"STARLINK-1271","INCLINATION":"53.0529","NORAD_CAT_ID":"45217","PERIOD":"95.593","OBJECT_TYPE":"PAYLOAD","MEAN_MOTION_DOT":"-0.00001345","CENTER_NAME":"EARTH"},{"ARG_OF_PERICENTER":"110.5258","CLASSIFICATION_TYPE":"U","ELEMENT_SET_NO":"999","FILE":"3621750","OBJECT_ID":"2020-012AT","MEAN_MOTION":"15.06386559","RA_OF_ASC_NODE":"164.5443","MEAN_MOTION_DDOT":"0.0000000000000","APOAPSIS":"548.127","RCS_SIZE":"LARGE","REF_FRAME":"TEME","ECCENTRICITY":"0.00012590","LAUNCH_DATE":"2020-02-17","DECAY_DATE":null,"COUNTRY_CODE":"US","PERIAPSIS":"546.383","TLE_LINE2":"2 45219  53.0532 164.5443 0001259 110.5258 249.5866 15.06386559148806","MEAN_ANOMALY":"249.5866","SEMIMAJOR_AXIS":"6925.390","SITE":"AFETR","REV_AT_EPOCH":"14880","MEAN_ELEMENT_THEORY":"SGP4","TLE_LINE1":"1 45219U 20012AT  22291.61822322  .00000675  00000-0  64207-4 0  9999","TIME_SYSTEM":"UTC","GP_ID":"215525868","BSTAR":"0.00006420700000","MEAN_MOTION_DOT":"0.00000675","CENTER_NAME":"EARTH","OBJECT_TYPE":"PAYLOAD","PERIOD":"95.593","INCLINATION":"53.0532","NORAD_CAT_ID":"45219","EPOCH":"2022-10-18T14:50:14.486208","EPHEMERIS_TYPE":"0","OBJECT_NAME":"STARLINK-1187"},{"DECAY_DATE":null,"LAUNCH_DATE":"2020-02-17","ECCENTRICITY":"0.00014880","MEAN_ANOMALY":"242.8471","PERIAPSIS":"546.205","TLE_LINE2":"2 45221  53.0535 164.2299 0001488 117.2670 242.8471 15.06392694148809","COUNTRY_CODE":"US","CLASSIFICATION_TYPE":"U","FILE":"3621750","MEAN_MOTION":"15.06392694","ELEMENT_SET_NO":"999","OBJECT_ID":"2020-012AV","ARG_OF_PERICENTER":"117.2670","REF_FRAME":"TEME","APOAPSIS":"548.266","RCS_SIZE":"LARGE","MEAN_MOTION_DDOT":"0.0000000000000","RA_OF_ASC_NODE":"164.2299","PERIOD":"95.593","OBJECT_TYPE":"PAYLOAD","CENTER_NAME":"EARTH","MEAN_MOTION_DOT":"0.00002392","OBJECT_NAME":"STARLINK-1189","EPOCH":"2022-10-18T16:31:04.806048","EPHEMERIS_TYPE":"0","INCLINATION":"53.0535","NORAD_CAT_ID":"45221","SITE":"AFETR","SEMIMAJOR_AXIS":"6925.371","BSTAR":"0.00017945000000","TIME_SYSTEM":"UTC","GP_ID":"215526626","REV_AT_EPOCH":"14880","MEAN_ELEMENT_THEORY":"SGP4","TLE_LINE1":"1 45221U 20012AV  22291.68825007  .00002392  00000-0  17945-3 0  9996"},{"ECCENTRICITY":"0.00014310","DECAY_DATE":null,"LAUNCH_DATE":"2020-02-17","PERIAPSIS":"546.264","TLE_LINE2":"2 45222  53.0557 164.1893 0001431 101.8681 258.2469 15.06386369148802","COUNTRY_CODE":"US","MEAN_ANOMALY":"258.2469","ARG_OF_PERICENTER":"101.8681","CLASSIFICATION_TYPE":"U","OBJECT_ID":"2020-012AW","FILE":"3621750","ELEMENT_SET_NO":"999","MEAN_MOTION":"15.06386369","MEAN_MOTION_DDOT":"0.0000000000000","RA_OF_ASC_NODE":"164.1893","REF_FRAME":"TEME","RCS_SIZE":"LARGE","APOAPSIS":"548.246","CENTER_NAME":"EARTH","MEAN_MOTION_DOT":"0.00000078","OBJECT_TYPE":"PAYLOAD","PERIOD":"95.593","INCLINATION":"53.0557","NORAD_CAT_ID":"45222","OBJECT_NAME":"STARLINK-1191","EPOCH":"2022-10-18T16:41:42.650592","EPHEMERIS_TYPE":"0","SEMIMAJOR_AXIS":"6925.390","SITE":"AFETR","TIME_SYSTEM":"UTC","GP_ID":"215524877","MEAN_ELEMENT_THEORY":"SGP4","REV_AT_EPOCH":"14880","TLE_LINE1":"1 45222U 20012AW  22291.69563253  .00000078  00000-0  24127-4 0  9990","BSTAR":"0.00002412700000"},{"MEAN_ANOMALY":"242.3765","TLE_LINE2":"2 45223  53.0537 164.3752 0001488 117.7375 242.3765 15.06395488148800","PERIAPSIS":"546.197","COUNTRY_CODE":"US","DECAY_DATE":null,"LAUNCH_DATE":"2020-02-17","ECCENTRICITY":"0.00014880","REF_FRAME":"TEME","RCS_SIZE":"LARGE","APOAPSIS":"548.258","MEAN_MOTION_DDOT":"0.0000000000000","RA_OF_ASC_NODE":"164.3752","OBJECT_ID":"2020-012AX","FILE":"3621750","ELEMENT_SET_NO":"999","MEAN_MOTION":"15.06395488","CLASSIFICATION_TYPE":"U","ARG_OF_PERICENTER":"117.7375","OBJECT_NAME":"STARLINK-1212","EPHEMERIS_TYPE":"0","EPOCH":"2022-10-18T15:36:38.212128","NORAD_CAT_ID":"45223","INCLINATION":"53.0537","OBJECT_TYPE":"PAYLOAD","PERIOD":"95.592","CENTER_NAME":"EARTH","MEAN_MOTION_DOT":"-0.00000024","BSTAR":"0.00001730600000","GP_ID":"215525127","TIME_SYSTEM":"UTC","TLE_LINE1":"1 45223U 20012AX  22291.65044227 -.00000024  00000-0  17306-4 0  9995","REV_AT_EPOCH":"14880","MEAN_ELEMENT_THEORY":"SGP4","SITE":"AFETR","SEMIMAJOR_AXIS":"6925.362"},{"APOAPSIS":"548.327","RCS_SIZE":"LARGE","REF_FRAME":"TEME","RA_OF_ASC_NODE":"164.3031","MEAN_MOTION_DDOT":"0.0000000000000","CLASSIFICATION_TYPE":"U","MEAN_MOTION":"15.06385704","FILE":"3621750","ELEMENT_SET_NO":"999","OBJECT_ID":"2020-012AZ","ARG_OF_PERICENTER":"106.6901","MEAN_ANOMALY":"253.4257","COUNTRY_CODE":"US","PERIAPSIS":"546.187","TLE_LINE2":"2 45225  53.0554 164.3031 0001545 106.6901 253.4257 15.06385704148750","LAUNCH_DATE":"2020-02-17","DECAY_DATE":null,"ECCENTRICITY":"0.00015450","BSTAR":"0.00003070500000","REV_AT_EPOCH":"14875","MEAN_ELEMENT_THEORY":"SGP4","TLE_LINE1":"1 45225U 20012AZ  22291.66982493  .00000176  00000-0  30705-4 0  9999","TIME_SYSTEM":"UTC","GP_ID":"215526368","SITE":"AFETR","SEMIMAJOR_AXIS":"6925.392","EPOCH":"2022-10-18T16:04:32.873952","EPHEMERIS_TYPE":"0","OBJECT_NAME":"STARLINK-1215","INCLINATION":"53.0554","NORAD_CAT_ID":"45225","PERIOD":"95.593","OBJECT_TYPE":"PAYLOAD","MEAN_MOTION_DOT":"0.00000176","CENTER_NAME":"EARTH"},{"PERIOD":"95.593","OBJECT_TYPE":"PAYLOAD","CENTER_NAME":"EARTH","MEAN_MOTION_DOT":"0.00002636","EPOCH":"2022-10-18T19:26:14.795808","EPHEMERIS_TYPE":"0","OBJECT_NAME":"STARLINK-1217","INCLINATION":"53.0549","NORAD_CAT_ID":"45226","SITE":"AFETR","SEMIMAJOR_AXIS":"6925.380","BSTAR":"0.00019585000000","REV_AT_EPOCH":"14873","MEAN_ELEMENT_THEORY":"SGP4","TLE_LINE1":"1 45226U 20012BA  22291.80989347  .00002636  00000-0  19585-3 0  9996","TIME_SYSTEM":"UTC","GP_ID":"215526128","LAUNCH_DATE":"2020-02-17","DECAY_DATE":null,"ECCENTRICITY":"0.00013810","MEAN_ANOMALY":"238.7083","COUNTRY_CODE":"US","PERIAPSIS":"546.288","TLE_LINE2":"2 45226  53.0549 163.6876 0001381 121.4041 238.7083 15.06389901148736","CLASSIFICATION_TYPE":"U","MEAN_MOTION":"15.06389901","FILE":"3621750","ELEMENT_SET_NO":"999","OBJECT_ID":"2020-012BA","ARG_OF_PERICENTER":"121.4041","RCS_SIZE":"LARGE","APOAPSIS":"548.201","REF_FRAME":"TEME","RA_OF_ASC_NODE":"163.6876","MEAN_MOTION_DDOT":"0.0000000000000"},{"MEAN_ELEMENT_THEORY":"SGP4","REV_AT_EPOCH":"14874","TLE_LINE1":"1 45227U 20012BB  22291.83201121  .00000919  00000-0  80625-4 0  9993","TIME_SYSTEM":"UTC","GP_ID":"215525377","BSTAR":"0.00008062500000","SEMIMAJOR_AXIS":"6925.407","SITE":"AFETR","INCLINATION":"53.0557","NORAD_CAT_ID":"45227","EPOCH":"2022-10-18T19:58:05.768544","EPHEMERIS_TYPE":"0","OBJECT_NAME":"STARLINK-1221","CENTER_NAME":"EARTH","MEAN_MOTION_DOT":"0.00000919","OBJECT_TYPE":"PAYLOAD","PERIOD":"95.593","RA_OF_ASC_NODE":"163.5891","MEAN_MOTION_DDOT":"0.0000000000000","RCS_SIZE":"LARGE","APOAPSIS":"548.226","REF_FRAME":"TEME","ARG_OF_PERICENTER":"124.2637","CLASSIFICATION_TYPE":"U","ELEMENT_SET_NO":"999","FILE":"3621750","MEAN_MOTION":"15.06380910","OBJECT_ID":"2020-012BB","COUNTRY_CODE":"US","PERIAPSIS":"546.318","TLE_LINE2":"2 45227  53.0557 163.5891 0001377 124.2637 235.8483 15.06380910148743","MEAN_ANOMALY":"235.8483","ECCENTRICITY":"0.00013770","LAUNCH_DATE":"2020-02-17","DECAY_DATE":null},{"SITE":"AFETR","SEMIMAJOR_AXIS":"6925.404","BSTAR":"0.00022850000000","MEAN_ELEMENT_THEORY":"SGP4","REV_AT_EPOCH":"14872","TLE_LINE1":"1 45228U 20012BC  22291.90203214  .00003122  00000-0  22850-3 0  9991","TIME_SYSTEM":"UTC","GP_ID":"215525627","PERIOD":"95.593","OBJECT_TYPE":"PAYLOAD","MEAN_MOTION_DOT":"0.00003122","CENTER_NAME":"EARTH","EPOCH":"2022-10-18T21:38:55.576896","EPHEMERIS_TYPE":"0","OBJECT_NAME":"STARLINK-1222","INCLINATION":"53.0552","NORAD_CAT_ID":"45228","CLASSIFICATION_TYPE":"U","MEAN_MOTION":"15.06381967","FILE":"3621750","ELEMENT_SET_NO":"999","OBJECT_ID":"2020-012BC","ARG_OF_PERICENTER":"103.4479","APOAPSIS":"548.240","RCS_SIZE":"LARGE","REF_FRAME":"TEME","RA_OF_ASC_NODE":"163.2701","MEAN_MOTION_DDOT":"0.0000000000000","LAUNCH_DATE":"2020-02-17","DECAY_DATE":null,"ECCENTRICITY":"0.00014030","MEAN_ANOMALY":"256.6667","COUNTRY_CODE":"US","PERIAPSIS":"546.297","TLE_LINE2":"2 45228  53.0552 163.2701 0001403 103.4479 256.6667 15.06381967148725"},{"MEAN_ELEMENT_THEORY":"SGP4","REV_AT_EPOCH":"14871","TLE_LINE1":"1 45229U 20012BD  22291.79883076  .00001113  00000-0  93628-4 0  9999","TIME_SYSTEM":"UTC","GP_ID":"215525869","BSTAR":"0.00009362800000","SEMIMAJOR_AXIS":"6925.387","SITE":"AFETR","INCLINATION":"53.0540","NORAD_CAT_ID":"45229","EPOCH":"2022-10-18T19:10:18.977664","EPHEMERIS_TYPE":"0","OBJECT_NAME":"STARLINK-1226","MEAN_MOTION_DOT":"0.00001113","CENTER_NAME":"EARTH","PERIOD":"95.593","OBJECT_TYPE":"PAYLOAD","RA_OF_ASC_NODE":"163.7420","MEAN_MOTION_DDOT":"0.0000000000000","APOAPSIS":"548.062","RCS_SIZE":"LARGE","REF_FRAME":"TEME","ARG_OF_PERICENTER":"93.0193","CLASSIFICATION_TYPE":"U","ELEMENT_SET_NO":"999","FILE":"3621750","MEAN_MOTION":"15.06387472","OBJECT_ID":"2020-012BD","COUNTRY_CODE":"US","PERIAPSIS":"546.442","TLE_LINE2":"2 45229  53.0540 163.7420 0001169  93.0193 267.0929 15.06387472148715","MEAN_ANOMALY":"267.0929","ECCENTRICITY":"0.00011690","LAUNCH_DATE":"2020-02-17","DECAY_DATE":null}];
